from flask import Flask, render_template, jsonify

app = Flask(__name__)

dummy_data = [ ['STARLINK-35863          ', '1 67170U 25303H   26023.56253100  .00062160  00000+0  14810-2 0  9999', '2 67170  42.9992 208.1625 0001981 278.9400  81.1233 15.40745208  5808'], ['STARLINK-35771          ', '1 67171U 25303J   26024.21752901  .00069979  00000+0  16667-2 0  9993', '2 67171  42.9979 204.4791 0000544 286.7731  73.3066 15.40708738  5900'], ['STARLINK-35762          ', '1 67172U 25303K   26024.21304821  .00078694  00000+0  18697-2 0  9997', '2 67172  42.9975 204.4435 0001019 303.4813  56.5946 15.40733504  5907'], ['STARLINK-36183          ', '1 67173U 25303L   26024.20856752  .00097855  00000+0  23165-2 0  9998', '2 67173  42.9986 204.4097 0001535 290.5653  69.5039 15.40744424  5905'], ['STARLINK-36210          ', '1 67174U 25303M   26024.20632087  .00067116  00000+0  15975-2 0  9999', '2 67174  42.9956 204.3914 0002099 274.8392  85.2225 15.40742506  5902'], ['STARLINK-35756          ', '1 67175U 25303N   26023.87770262  .00094543  00000+0  22392-2 0  9995', '2 67175  42.9993 206.2236 0001778 269.6297  90.4356 15.40744738  5857'], ['STARLINK-35785          ', '1 67176U 25303P   26024.20408631  .00084965  00000+0  20140-2 0  9998', '2 67176  42.9969 204.3752 0001721 284.6097  75.4568 15.40768557  5905'], ['STARLINK-35853          ', '1 67177U 25303Q   26024.19960889  .00104948  00000+0  24837-2 0  9996', '2 67177  42.9995 204.3408 0000829 309.7512  50.3271 15.40717778  5904'], ['STARLINK-35878          ', '1 67178U 25303R   26023.80615424  .00067017  00000+0  15963-2 0  9991', '2 67178  42.9993 206.5458 0002349 290.5819  69.4785 15.40720861  5849'], ['STARLINK-35793          ', '1 67179U 25303S   26024.19736990  .00071193  00000+0  16955-2 0  9999', '2 67179  43.0013 204.3223 0000518 335.2548  24.8284 15.40703698  5908'], ['STARLINK-35876          ', '1 67180U 25303T   26023.80393111  .00087212  00000+0  20738-2 0  9995', '2 67180  43.0003 206.5283 0001829 260.7515  99.3134 15.40661906  5840'], ['STARLINK-35766          ', '1 67181U 25303U   26023.86650314  .00108834  00000+0  25704-2 0  9995', '2 67181  42.9999 206.1387 0002145 272.3328  87.7283 15.40760375  5854'], ['STARLINK-35782          ', '1 67182U 25303V   26024.18839382  .00063639  00000+0  15173-2 0  9998', '2 67182  43.0016 204.2526 0003790 263.6159  96.4266 15.40709116  5903'], ['STARLINK-35719          ', '1 67183U 25303W   26024.18392470  .00104525  00000+0  24723-2 0  9992', '2 67183  42.9959 204.2178 0000672 259.2317 100.8463 15.40737347  5900'], ['STARLINK-35910          ', '1 67184U 25303X   26024.18616360  .00050845  00000+0  12149-2 0  9994', '2 67184  43.0041 204.2350 0001112 304.4223  55.6528 15.40737172  5901'], ['STARLINK-35859          ', '1 67185U 25303Y   26023.91976946  .00058336  00000+0  13922-2 0  9997', '2 67185  42.9989 205.6766 0001410 287.9968  72.0735 15.40720317  5860'], ['STARLINK-35857          ', '1 67186U 25303Z   26024.18167928  .00053177  00000+0  12709-2 0  9990', '2 67186  42.9989 204.2003 0001740 281.4016  78.6645 15.40710611  5902'], ['STARLINK-35880          ', '1 67187U 25303AA  26023.85271262  .00074029  00000+0  17567-2 0  9997', '2 67187  42.9998 206.0318 0001340 328.1571  31.9204 15.40796773  5853'], ['STARLINK-35675          ', '1 67188U 25303AB  26023.84822270  .00062430  00000+0  14864-2 0  9998', '2 67188  42.9989 205.9972 0002015 268.4870  91.5755 15.40763304  5853'], ['STARLINK-35889          ', '1 67189U 25303AC  26023.91528534  .00055049  00000+0  13121-2 0  9996', '2 67189  43.0054 205.6393 0002380 258.6077 101.4513 15.40778269  5868'], ['STARLINK-35888          ', '1 67190U 25303AD  26023.84373903  .00067583  00000+0  16092-2 0  9994', '2 67190  42.9993 205.9596 0002178 276.7052  83.3556 15.40730574  5858'], ['STARLINK-35716          ', '1 67191U 25303AE  26023.84598300  .00068024  00000+0  16181-2 0  9995', '2 67191  43.0003 205.9785 0001749 264.6760  95.3897 15.40757544  5855'], ['STARLINK-36182          ', '1 67192U 25304A   26024.12549513  .00095507  00000+0  21545-2 0  9997', '2 67192  69.9995 290.2514 0004562 266.5589  93.5071 15.42749041  7093'], ['STARLINK-36279          ', '1 67193U 25304B   26024.15793338  .00074718  00000+0  16924-2 0  9993', '2 67193  70.0003 289.9585 0004321 343.5832  16.5209 15.42722201  7132'], ['STARLINK-36284          ', '1 67194U 25304C   26024.10929458  .00073595  00000+0  16665-2 0  9997', '2 67194  69.9993 290.1920 0003721 274.6064  85.4692 15.42737215  7120'], ['STARLINK-36291          ', '1 67195U 25304D   26024.14171281  .00085996  00000+0  19447-2 0  9994', '2 67195  69.9992 289.9001 0002537 319.9808  40.1187 15.42723149  7138'], ['STARLINK-36239          ', '1 67196U 25304E   26024.11739295  .00073541  00000+0  16657-2 0  9990', '2 67196  69.9983 290.2214 0003905 262.3883  97.6856 15.42728834  7129'], ['STARLINK-36283          ', '1 67197U 25304F   26024.14981019  .00107495  00000+0  24240-2 0  9990', '2 67197  70.0002 289.9288 0003571 273.2079  86.8694 15.42712150  7133'], ['STARLINK-36267          ', '1 67198U 25304G   26024.16602231  .00099280  00000+0  22406-2 0  9993', '2 67198  69.9995 289.9876 0002913 268.7414  91.3434 15.42724868  7105'], ['STARLINK-36268          ', '1 67199U 25304H   26024.13359542  .00101473  00000+0  22911-2 0  9994', '2 67199  70.0021 289.8703 0004588 265.2138  94.8520 15.42695645  7139'], ['STARLINK-36270          ', '1 67200U 25304J   26024.12151924  .00048915  00000+0  11129-2 0  9990', '2 67200  69.9983 290.2352 0003870 280.4938  79.5808 15.42721486  7123'], ['STARLINK-36262          ', '1 67201U 25304K   26024.11342917  .00093526  00000+0  21109-2 0  9991', '2 67201  69.9985 290.2062 0003849 268.0141  92.0600 15.42744897  7129'], ['STARLINK-36263          ', '1 67202U 25304L   26024.10532581  .00137755  00000+0  30815-2 0  9996', '2 67202  70.0004 290.1774 0004193 264.2995  95.7709 15.42824544  7120'], ['STARLINK-36224          ', '1 67203U 25304M   26024.16206953  .00099769  00000+0  22503-2 0  9991', '2 67203  69.9980 289.9732 0002754 297.9713  62.1190 15.42740650  7131'], ['STARLINK-36185          ', '1 67204U 25304N   26024.15395299  .00096510  00000+0  21799-2 0  9990', '2 67204  69.9988 289.9439 0002681 279.8486  80.2393 15.42711411  7138'], ['STARLINK-36197          ', '1 67205U 25304P   26024.14585285  .00085714  00000+0  19390-2 0  9994', '2 67205  70.0007 289.9126 0003317 278.8731  81.2075 15.42711921  7107'], ['STARLINK-36056          ', '1 67206U 25304Q   26024.13775211  .00096791  00000+0  21815-2 0  9996', '2 67206  69.9992 289.8830 0003292 269.2585  90.8220 15.42774343  7107'], ['STARLINK-36225          ', '1 67207U 25304R   26024.12964119  .00099042  00000+0  22342-2 0  9991', '2 67207  69.9997 289.8540 0003989 284.4257  75.6482 15.42735723  7132'], ['STARLINK-36265          ', '1 67208U 25304S   26024.11144750  .00102984  00000+0  23206-2 0  9992', '2 67208  69.9994 290.1958 0003547 279.6843  80.3938 15.42752903  7122'], ['STARLINK-36226          ', '1 67209U 25304T   26024.16818679  .00172712  00000+0  38555-2 0  9995', '2 67209  69.9987 289.9923 0003321 265.7119  94.3684 15.42745883  7138'], ['STARLINK-36173          ', '1 67210U 25304U   26024.15989751  .00087299  00000+0  19741-2 0  9997', '2 67210  69.9983 289.9633 0003702 256.1140 103.9631 15.42716374  7137'], ['STARLINK-36280          ', '1 67211U 25304V   26024.15593526  .00100199  00000+0  22612-2 0  9995', '2 67211  69.9992 289.9494 0003225 273.9841  86.0972 15.42721591  7134'], ['STARLINK-36213          ', '1 67212U 25304W   26024.15197471  .00106722  00000+0  24060-2 0  9992', '2 67212  69.9992 289.9345 0004016 269.5899  90.4822 15.42721470  7132'], ['STARLINK-36199          ', '1 67213U 25304X   26024.14387074  .00031553  00000+0  72022-3 0  9993', '2 67213  70.0025 289.9046 0002560 267.1589  92.9300 15.42744193  7138'], ['STARLINK-36203          ', '1 67214U 25304Y   26024.13972476  .00117254  00000+0  26345-2 0  9998', '2 67214  70.0007 289.8906 0003944 283.6151  76.4591 15.42778112  7135'], ['STARLINK-36221          ', '1 67215U 25304Z   26024.13575870  .00109618  00000+0  24668-2 0  9997', '2 67215  69.9997 289.8762 0004820 275.4658  84.5974 15.42759332  7134'], ['STARLINK-36212          ', '1 67216U 25304AA  26024.13161428  .00080642  00000+0  18213-2 0  9992', '2 67216  69.9995 289.8609 0003774 277.5845  82.4908 15.42781910  7132'], ['STARLINK-36216          ', '1 67217U 25304AB  26024.12765835  .00076820  00000+0  17388-2 0  9999', '2 67217  69.9994 289.8472 0004258 277.6951  82.3747 15.42732794  7133'], ['STARLINK-36211          ', '1 67218U 25304AC  26024.12351305  .00094358  00000+0  21293-2 0  9999', '2 67218  70.0004 289.8316 0005158 265.9604  94.0988 15.42741163  7105'], ['DISKSAT C               ', '1 67219U 25305A   26023.67012320  .00019906  00000+0  13320-2 0  9999', '2 67219  45.0025 128.9412 0001566  95.1373 264.9681 15.06687630  5504'], ['DISKSAT B               ', '1 67220U 25305B   26020.75404106  .00017266  00000+0  11663-2 0  9999', '2 67220  45.0029 144.3686 0001229  86.2101 273.8915 15.06417656  5060'], ['DISKSAT D               ', '1 67221U 25305C   26022.61184487  .00006249  00000+0  43329-3 0  9998', '2 67221  45.0026 134.5661 0001259 110.4750 249.6260 15.06393431  5344'], ['DISKSAT A               ', '1 67222U 25305D   26023.67407049  .00021204  00000+0  14259-2 0  9995', '2 67222  45.0014 128.9690 0002003 123.1542 236.9526 15.06470002  5499'], ['TJS-23                  ', '1 67226U 25306A   26023.00163486  .00000034  00000+0  00000+0 0  9995', '2 67226   5.9176 298.2316 0001267  86.1647 274.0093  1.00272438   431'], ['QPS-SAR-15              ', '1 67228U 25307A   26023.85226421  .00008504  00000+0  73167-3 0  9998', '2 67228  42.0074 299.6990 0008140 136.2648 223.8822 14.97507573  5034'], ['SPACEMOBILE-006         ', '1 67232U 25309A   26024.19972184 -.00000229  00000+0  45191-5 0  9992', '2 67232  52.9959 270.7516 0012152  55.5819 304.6321 15.17763592  4721']